[{"OBJECT_NAME":"STARLINK-5205","OBJECT_ID":"2022-141AX","EPOCH":"2026-03-09T18:21:18.234432","MEAN_MOTION":15.08837111,"ECCENTRICITY":0.00016105,"INCLINATION":53.2213,"RA_OF_ASC_NODE":353.4688,"ARG_OF_PERICENTER":95.7162,"MEAN_ANOMALY":264.4014,"EPHEMERIS_TYPE":0,"CLASSIFICATION_TYPE":"U","NORAD_CAT_ID":54202,"ELEMENT_SET_NO":999,"REV_AT_EPOCH":18601,"BSTAR":-2.0864165e-5,"MEAN_MOTION_DOT":-6.2e-6,"MEAN_MOTION_DDOT":0},{"OBJECT_NAME":"COSMOS 1408 DEB","OBJECT_ID":"1982-092ADS","EPOCH":"2026-03-09T15:14:01.495392","MEAN_MOTION":15.34178134,"ECCENTRICITY":0.0122957,"INCLINATION":82.1939,"RA_OF_ASC_NODE":124.7493,"ARG_OF_PERICENTER":254.6382,"MEAN_ANOMALY":104.1246,"EPHEMERIS_TYPE":0,"CLASSIFICATION_TYPE":"U","NORAD_CAT_ID":50404,"ELEMENT_SET_NO":999,"REV_AT_EPOCH":22516,"BSTAR":0.0029669,"MEAN_MOTION_DOT":0.00127192,"MEAN_MOTION_DDOT":0}]
